[Satellite]
VERSION=1.1
NAME=IRIDIUM 109 [+]
NICKNAME=IRIDIUM 109 [+]
TLE1=1 41919U 17003C   20157.91562865  .00000047  00000-0  98325-5 0  9995
TLE2=2 41919  86.3958 288.6991 0002258  91.1422 269.0033 14.34217156177567
STATUS=0
